{"fetched_at":"2026-03-29T16:36:15Z","count":15609,"tles":[{"name":"STARLINK-35914","line1":"1 66532U 25265S   26087.59984129  .00043097  00000+0  15649-2 0  9991","line2":"2 66532  43.0029 171.3020 0001247 269.4502  90.6207 15.27613950 20003","category":"Starlink"}]}