{
  "norad_id": 66532,
  "name": "STARLINK-35914",
  "history": [
    {
      "epoch": "2026-03-28T14:23:46.287456",
      "apogee_km": 483.80301663853606,
      "perigee_km": 482.091862179348,
      "latitude_deg": 31.382496067518826,
      "longitude_deg": 170.78476384002715,
      "semi_major_axis_km": 6861.084439408942,
      "eccentricity": 0.0001247,
      "inclination_deg": 43.0029,
      "raan_deg": 171.302,
      "arg_perigee_deg": 269.4502,
      "mean_anomaly_deg": 90.6207,
      "mean_motion_rev_day": 15.2761395
    }
  ]
}